[{"id":"64444","name":"STARLINK-34399","tle1":"1 64444U 25130G   26175.66105174  .00030555  00000+0  91127-3 0  9994","tle2":"2 64444  53.1612 310.0528 0001610  80.0949 280.0235 15.34416952 57102"},{"id":"64445","name":"STARLINK-34398","tle1":"1 64445U 25130H   26175.63690054  .00022588  00000+0  77221-3 0  9994","tle2":"2 64445  53.1608 312.0293 0002093  82.8172 277.3067 15.30209425 57072"},{"id":"64446","name":"STARLINK-34402","tle1":"1 64446U 25130J   26175.64944704  .00019117  00000+0  65539-3 0  9993","tle2":"2 64446  53.1596 311.3973 0002397  83.1170 277.0104 15.30224871 57087"},{"id":"64447","name":"STARLINK-34450","tle1":"1 64447U 25130K   26175.11226620  .00022558  00000+0  77100-3 0  9996","tle2":"2 64447  53.1621 314.4394 0000493 113.2811 246.8242 15.30218741 56995"},{"id":"64448","name":"STARLINK-34433","tle1":"1 64448U 25130L   26175.64216303  .00023422  00000+0  79947-3 0  9994","tle2":"2 64448  53.1620 312.0609 0002731  91.9047 268.2267 15.30237466 57078"},{"id":"64449","name":"STARLINK-34459","tle1":"1 64449U 25130M   26175.64220616  .00014214  00000+0  43099-3 0  9995","tle2":"2 64449  53.1598 310.6438 0001518  81.0774 279.0400 15.34402670 57092"},{"id":"64450","name":"STARLINK-34361","tle1":"1 64450U 25130N   26175.09165567  .00023154  00000+0  69392-3 0  9996","tle2":"2 64450  53.1588 312.9005 0000603 247.2544 112.8395 15.34416885 58184"},{"id":"64451","name":"STARLINK-34392","tle1":"1 64451U 25130P   26175.64006233  .00023143  00000+0  79055-3 0  9997","tle2":"2 64451  53.1656 312.0462 0001471  67.8439 292.2718 15.30221759 57071"},{"id":"64452","name":"STARLINK-34367","tle1":"1 64452U 25130Q   26175.66210973  .00032855  00000+0  11159-2 0  9998","tle2":"2 64452  53.1597 311.4748 0000550 113.8494 246.2564 15.30216784 57076"},{"id":"64453","name":"STARLINK-34221","tle1":"1 64453U 25130R   26175.65894982  .00029755  00000+0  88767-3 0  9991","tle2":"2 64453  53.1579 310.0420 0000588 316.9517  43.1439 15.34421769 57106"},{"id":"64454","name":"STARLINK-34282","tle1":"1 64454U 25130S   26175.65672643  .00027287  00000+0  88720-3 0  9997","tle2":"2 64454  53.1573 313.5725 0002277  87.7312 272.3951 15.31723237 57051"},{"id":"64455","name":"STARLINK-34295","tle1":"1 64455U 25130T   26175.66736293  .00027045  00000+0  80836-3 0  9993","tle2":"2 64455  53.1572 310.0937 0001566 104.7926 255.3250 15.34412998 57100"},{"id":"64456","name":"STARLINK-34430","tle1":"1 64456U 25130U   26175.65472371  .00037412  00000+0  12682-2 0  9999","tle2":"2 64456  53.1610 311.4262 0001447  84.6311 275.4855 15.30218140 57082"},{"id":"64457","name":"STARLINK-34445","tle1":"1 64457U 25130V   26175.66526011  .00029689  00000+0  88567-3 0  9995","tle2":"2 64457  53.1523 310.0799 0002079 111.2377 248.8847 15.34423753 57107"},{"id":"64458","name":"STARLINK-34439","tle1":"1 64458U 25130W   26175.52829831  .00015736  00000+0  54170-3 0  9998","tle2":"2 64458  53.1602 312.0580 0001553 294.1532  65.9306 15.30235055 57061"},{"id":"64459","name":"STARLINK-34421","tle1":"1 64459U 25130X   26174.74283942  .00022974  00000+0  68883-3 0  9997","tle2":"2 64459  53.1594 314.2744 0001304  85.1917 274.9234 15.34407113 56967"},{"id":"64460","name":"STARLINK-34423","tle1":"1 64460U 25130Y   26175.65260988  .00022900  00000+0  78217-3 0  9996","tle2":"2 64460  53.1601 311.4091 0006376  99.9651 260.2070 15.30217223 57081"},{"id":"64461","name":"STARLINK-34418","tle1":"1 64461U 25130Z   26175.11015676  .00015456  00000+0  53297-3 0  9999","tle2":"2 64461  53.1585 314.4211 0001288  97.4118 262.7030 15.30195055 56998"},{"id":"64462","name":"STARLINK-34336","tle1":"1 64462U 25130AA  26175.67071879  .00021996  00000+0  71792-3 0  9994","tle2":"2 64462  53.1567 313.5914 0001537  84.7271 275.3906 15.31725352 57055"},{"id":"64463","name":"STARLINK-34400","tle1":"1 64463U 25130AB  26175.82923102  .00030830  00000+0  10003-2 0  9991","tle2":"2 64463  53.1607 313.2222 0001333  84.0704 276.0450 15.31728784 57074"},{"id":"64464","name":"STARLINK-34429","tle1":"1 64464U 25130AC  26175.65684353  .00034237  00000+0  10187-2 0  9993","tle2":"2 64464  53.1601 310.0220 0004884  99.2013 260.9543 15.34426931 57108"},{"id":"64465","name":"STARLINK-34449","tle1":"1 64465U 25130AD  26175.10849007  .00027793  00000+0  83013-3 0  9991","tle2":"2 64465  53.1611 312.9940 0000440 115.5020 244.6028 15.34420494 57019"},{"id":"64467","name":"COSMOS 2589","tle1":"1 64467U 25131A   26175.67170471 -.00000282  00000+0  00000+0 0  9994","tle2":"2 64467   0.0431  97.2859 0001044 347.1395 168.1766  1.00270569  3635"},{"id":"64470","name":"CHINASAT 9C","tle1":"1 64470U 25132A   26176.16919925 -.00000238  00000+0  00000+0 0  9990","tle2":"2 64470   0.0305  95.8722 0003327 354.9134 335.6419  1.00272514  4229"},{"id":"64472","name":"STARLINK-34493","tle1":"1 64472U 25133A   26176.25002315  .00067994  00000+0  20081-2 0  9994","tle2":"2 64472  53.1606 337.3103 0001329  86.2568 314.0584 15.34356078  5862"},{"id":"64473","name":"STARLINK-34492","tle1":"1 64473U 25133B   26176.31495583  .00059611  00000+0  20062-2 0  9991","tle2":"2 64473  53.1595 337.0817 0000307  41.5992 318.5032 15.30240702 57663"},{"id":"64474","name":"STARLINK-34474","tle1":"1 64474U 25133C   26176.18113817  .00025460  00000+0  86825-3 0  9999","tle2":"2 64474  53.1584 337.6694 0000632 110.6372 249.4696 15.30219588 57624"},{"id":"64475","name":"STARLINK-34523","tle1":"1 64475U 25133D   26175.86829686  .00043146  00000+0  12809-2 0  9993","tle2":"2 64475  53.1556 335.7274 0000312 260.3694  99.7274 15.34398104 57626"},{"id":"64476","name":"STARLINK-34496","tle1":"1 64476U 25133E   26175.86410238  .00027273  00000+0  81539-3 0  9993","tle2":"2 64476  53.1578 335.6993 0001066  98.4504 261.6620 15.34400107 57638"},{"id":"64477","name":"STARLINK-34375","tle1":"1 64477U 25133F   26175.85776794  .00026746  00000+0  79958-3 0  9991","tle2":"2 64477  53.1574 335.6607 0000786  83.4366 276.6726 15.34412118 57644"}]