OBJECT_NAME,OBJECT_ID,EPOCH,MEAN_MOTION,ECCENTRICITY,INCLINATION,RA_OF_ASC_NODE,ARG_OF_PERICENTER,MEAN_ANOMALY,EPHEMERIS_TYPE,CLASSIFICATION_TYPE,NORAD_CAT_ID,ELEMENT_SET_NO,REV_AT_EPOCH,BSTAR,MEAN_MOTION_DOT,MEAN_MOTION_DDOT
STARLINK-34399,2025-130G,2026-06-24T15:51:54.870336,15.34416952,.00016108,53.1612,310.0528,80.0949,280.0235,0,U,64444,999,5710,.91127311E-3,.30555E-3,0
STARLINK-34398,2025-130H,2026-06-24T15:17:08.206656,15.30209425,.00020931,53.1608,312.0293,82.8172,277.3067,0,U,64445,999,5707,.77220567E-3,.22588E-3,0
STARLINK-34402,2025-130J,2026-06-24T15:35:12.224256,15.30224871,.00023973,53.1596,311.3973,83.1170,277.0104,0,U,64446,999,5708,.65538669E-3,.19117E-3,0
STARLINK-34450,2025-130K,2026-06-24T02:41:39.799680,15.30218741,.00004933,53.1621,314.4394,113.2811,246.8242,0,U,64447,999,5699,.77099739E-3,.22558E-3,0
STARLINK-34433,2025-130L,2026-06-24T15:24:42.885792,15.30237466,.00027319,53.1620,312.0609,91.9047,268.2267,0,U,64448,999,5707,.79947231E-3,.23422E-3,0
STARLINK-34459,2025-130M,2026-06-24T15:24:46.612224,15.34402670,.00015187,53.1598,310.6438,81.0774,279.0400,0,U,64449,999,5709,.43098711E-3,.14214E-3,0
STARLINK-34361,2025-130N,2026-06-24T02:11:59.049888,15.34416885,.00006036,53.1588,312.9005,247.2544,112.8395,0,U,64450,999,5818,.69391559E-3,.23154E-3,0
STARLINK-34392,2025-130P,2026-06-24T15:21:41.385312,15.30221759,.00014718,53.1656,312.0462,67.8439,292.2718,0,U,64451,999,5707,.79054861E-3,.23143E-3,0
STARLINK-34367,2025-130Q,2026-06-24T15:53:26.280672,15.30216784,.00005502,53.1597,311.4748,113.8494,246.2564,0,U,64452,999,5707,.11159338E-2,.32855E-3,0
STARLINK-34221,2025-130R,2026-06-24T15:48:53.264448,15.34421769,.00005883,53.1579,310.0420,316.9517,43.1439,0,U,64453,999,5710,.8876678E-3,.29755E-3,0
STARLINK-34282,2025-130S,2026-06-24T15:45:41.163552,15.31723237,.00022776,53.1573,313.5725,87.7312,272.3951,0,U,64454,999,5705,.88719929E-3,.27287E-3,0
STARLINK-34295,2025-130T,2026-06-24T16:01:00.157152,15.34412998,.00015661,53.1572,310.0937,104.7926,255.3250,0,U,64455,999,5710,.80836137E-3,.27045E-3,0
STARLINK-34430,2025-130U,2026-06-24T15:42:48.128544,15.30218140,.00014471,53.1610,311.4262,84.6311,275.4855,0,U,64456,999,5708,.12682117E-2,.37412E-3,0
STARLINK-34445,2025-130V,2026-06-24T15:57:58.473504,15.34423753,.0002079,53.1523,310.0799,111.2377,248.8847,0,U,64457,999,5710,.88566985E-3,.29689E-3,0
STARLINK-34439,2025-130W,2026-06-24T12:40:44.973984,15.30235055,.0001553,53.1602,312.0580,294.1532,65.9306,0,U,64458,999,5706,.54170118E-3,.15736E-3,0
STARLINK-34421,2025-130X,2026-06-23T17:49:41.325888,15.34407113,.00013048,53.1594,314.2744,85.1917,274.9234,0,U,64459,999,5696,.6888312E-3,.22974E-3,0
STARLINK-34423,2025-130Y,2026-06-24T15:39:45.493632,15.30217223,.00063763,53.1601,311.4091,99.9651,260.2070,0,U,64460,999,5708,.78216991E-3,.229E-3,0
STARLINK-34418,2025-130Z,2026-06-24T02:38:37.544064,15.30195055,.00012882,53.1585,314.4211,97.4118,262.7030,0,U,64461,999,5699,.53297015E-3,.15456E-3,0
STARLINK-34336,2025-130AA,2026-06-24T16:05:50.103456,15.31725352,.00015374,53.1567,313.5914,84.7271,275.3906,0,U,64462,999,5705,.71791518E-3,.21996E-3,0
STARLINK-34400,2025-130AB,2026-06-24T19:54:05.560128,15.31728784,.00013331,53.1607,313.2222,84.0704,276.0450,0,U,64463,999,5707,.10002592E-2,.3083E-3,0
STARLINK-34429,2025-130AC,2026-06-24T15:45:51.280992,15.34426931,.00048849,53.1601,310.0220,99.2013,260.9543,0,U,64464,999,5710,.10186777E-2,.34237E-3,0
STARLINK-34449,2025-130AD,2026-06-24T02:36:13.542048,15.34420494,.00004408,53.1611,312.9940,115.5020,244.6028,0,U,64465,999,5701,.83012726E-3,.27793E-3,0
COSMOS 2589,2025-131A,2026-06-24T16:07:15.286944,1.00270569,.0001044,0.0431,97.2859,347.1395,168.1766,0,U,64467,999,363,0,-.282E-5,0
CHINASAT 9C,2025-132A,2026-06-25T04:03:38.815200,1.00272514,.00033274,0.0305,95.8722,354.9134,335.6419,0,U,64470,999,422,0,-.238E-5,0
STARLINK-34493,2025-133A,2026-06-25T06:00:02.000160,15.34356078,.00013298,53.1606,337.3103,86.2568,314.0584,0,U,64472,999,586,.20081456E-2,.67994E-3,0
STARLINK-34492,2025-133B,2026-06-25T07:33:32.183712,15.30240702,.00003075,53.1595,337.0817,41.5992,318.5032,0,U,64473,999,5766,.20061692E-2,.59611E-3,0
STARLINK-34474,2025-133C,2026-06-25T04:20:50.337888,15.30219588,.00006325,53.1584,337.6694,110.6372,249.4696,0,U,64474,999,5762,.86825291E-3,.2546E-3,0
STARLINK-34523,2025-133D,2026-06-24T20:50:20.848704,15.34398104,.00003126,53.1556,335.7274,260.3694,99.7274,0,U,64475,999,5762,.12808589E-2,.43146E-3,0
STARLINK-34496,2025-133E,2026-06-24T20:44:18.445632,15.34400107,.00010669,53.1578,335.6993,98.4504,261.6620,0,U,64476,999,5763,.81539239E-3,.27273E-3,0
STARLINK-34375,2025-133F,2026-06-24T20:35:11.150016,15.34412118,.00007861,53.1574,335.6607,83.4366,276.6726,0,U,64477,999,5764,.79957665E-3,.26746E-3,0
